{
"type": "FeatureCollection",
"name": "norala_barangay",
"crs": { "type": "name", "properties": { "name": "urn:ogc:def:crs:OGC:1.3:CRS84" } },
"features": [
{ "type": "Feature", "properties": { "COUNTRY": "Philippines", "NAME_1": "South Cotabato", "NAME_2": "Norala", "NAME_3": "Dumaguil", "ENGTYPE_3": "Village", "Total_Repo": 0, "Affected_A": 0.0, "Severity": 0.0, "IPI": 0.0 }, "geometry": { "type": "MultiPolygon", "coordinates": [ [ [ [ 124.694869994000328, 6.524660111000173 ], [ 124.693862915000068, 6.525899887000094 ], [ 124.691253662000122, 6.530139923000036 ], [ 124.687446594000221, 6.532929898000077 ], [ 124.68411254800003, 6.531390191000128 ], [ 124.682746886000018, 6.534070015000168 ], [ 124.67891693200022, 6.535109996000131 ], [ 124.677223205000132, 6.538430214000073 ], [ 124.678039551000211, 6.541369914000086 ], [ 124.677261352000187, 6.546470166000063 ], [ 124.672828674000016, 6.547070026000142 ], [ 124.66956329300001, 6.548989774000177 ], [ 124.664321900000346, 6.550280094000129 ], [ 124.662826538000104, 6.552879811000025 ], [ 124.657653808000191, 6.557000161000076 ], [ 124.656066894000332, 6.560219765 ], [ 124.65572357200017, 6.563240052000083 ], [ 124.655166626000096, 6.565820217000123 ], [ 124.653213500000106, 6.567749978 ], [ 124.635063172000287, 6.581550122000181 ], [ 124.638648987000238, 6.585619928000142 ], [ 124.639938355000027, 6.588699817000133 ], [ 124.677062988000102, 6.581769943000154 ], [ 124.684318542000028, 6.580249786000081 ], [ 124.688171388000114, 6.566549779000127 ], [ 124.687446594000221, 6.556960107000123 ], [ 124.688682557000106, 6.551899910000088 ], [ 124.690406800000346, 6.549530028999982 ], [ 124.690170289000093, 6.546070099000076 ], [ 124.698463440000069, 6.535130024000011 ], [ 124.699996949000251, 6.532899857000132 ], [ 124.700729371000079, 6.530590056999984 ], [ 124.698646546000191, 6.528610229000151 ], [ 124.697158814000204, 6.528470040000173 ], [ 124.695793152000192, 6.524950027000159 ], [ 124.694869994000328, 6.524660111000173 ] ] ] ] } },
{ "type": "Feature", "properties": { "COUNTRY": "Philippines", "NAME_1": "South Cotabato", "NAME_2": "Norala", "NAME_3": "Esperanza", "ENGTYPE_3": "Village", "Total_Repo": 6, "Affected_A": 5.8, "Severity": 18.33, "IPI": 0.019 }, "geometry": { "type": "MultiPolygon", "coordinates": [ [ [ [ 124.679862976000095, 6.486149789000081 ], [ 124.679977417000146, 6.482200146000025 ], [ 124.690483094000115, 6.481359960000134 ], [ 124.689918517000024, 6.468160153000156 ], [ 124.664436341000169, 6.46831989400016 ], [ 124.664512634000175, 6.481709956000145 ], [ 124.668502808000085, 6.481750010999974 ], [ 124.668800355000258, 6.485879899000111 ], [ 124.679862976000095, 6.486149789000081 ] ] ] ] } },
{ "type": "Feature", "properties": { "COUNTRY": "Philippines", "NAME_1": "South Cotabato", "NAME_2": "Norala", "NAME_3": "Kibid", "ENGTYPE_3": "Village", "Total_Repo": 9, "Affected_A": 9.83, "Severity": 33.33, "IPI": 0.152 }, "geometry": { "type": "MultiPolygon", "coordinates": [ [ [ [ 124.695457459000181, 6.522039891000077 ], [ 124.693260194000231, 6.518139838000081 ], [ 124.686988830000018, 6.516719819000059 ], [ 124.677253724000252, 6.512050153000075 ], [ 124.675971984000057, 6.514150143999984 ], [ 124.672752380000134, 6.514090061000104 ], [ 124.669792174, 6.515510082000105 ], [ 124.66766357400013, 6.518159867 ], [ 124.670143128000063, 6.519949913000175 ], [ 124.673896789000082, 6.525340081000138 ], [ 124.671562195000206, 6.531509877000076 ], [ 124.674247743000137, 6.532030106000036 ], [ 124.674491882000211, 6.540870191000067 ], [ 124.671943665000072, 6.545829773000094 ], [ 124.672828674000016, 6.547070026000142 ], [ 124.677261352000187, 6.546470166000063 ], [ 124.678039551000211, 6.541369914000086 ], [ 124.677223205000132, 6.538430214000073 ], [ 124.67891693200022, 6.535109996000131 ], [ 124.682746886000018, 6.534070015000168 ], [ 124.68411254800003, 6.531390191000128 ], [ 124.687446594000221, 6.532929898000077 ], [ 124.691253662000122, 6.530139923000036 ], [ 124.693862915000068, 6.525899887000094 ], [ 124.694869994000328, 6.524660111000173 ], [ 124.695457459000181, 6.522039891000077 ] ] ] ] } },
{ "type": "Feature", "properties": { "COUNTRY": "Philippines", "NAME_1": "South Cotabato", "NAME_2": "Norala", "NAME_3": "Lapuz", "ENGTYPE_3": "Village", "Total_Repo": 5, "Affected_A": 6.6, "Severity": 64.0, "IPI": 0.261 }, "geometry": { "type": "MultiPolygon", "coordinates": [ [ [ [ 124.611076355000023, 6.510439873000053 ], [ 124.640617370000086, 6.511119842000085 ], [ 124.640510559000063, 6.506279945000131 ], [ 124.640983582000217, 6.490759850000188 ], [ 124.618873596000299, 6.490009785000041 ], [ 124.617599488000224, 6.489940167000157 ], [ 124.61531066900011, 6.489099980000162 ], [ 124.612907409000059, 6.487740041000166 ], [ 124.610847472000046, 6.487609863000046 ], [ 124.609840392000024, 6.489510059000111 ], [ 124.61000824000007, 6.491300106000153 ], [ 124.610336303000167, 6.492330074000108 ], [ 124.611137390000067, 6.495039941000016 ], [ 124.612022400000114, 6.498640060000128 ], [ 124.612380981000229, 6.501279831000147 ], [ 124.612419128000056, 6.502850056999989 ], [ 124.612022400000114, 6.505449770999974 ], [ 124.611976623000146, 6.506979943000147 ], [ 124.611907959000177, 6.507760049000183 ], [ 124.611076355000023, 6.510439873000053 ] ] ] ] } },
{ "type": "Feature", "properties": { "COUNTRY": "Philippines", "NAME_1": "South Cotabato", "NAME_2": "Norala", "NAME_3": "Liberty", "ENGTYPE_3": "Village", "Total_Repo": 0, "Affected_A": 0.0, "Severity": 0.0, "IPI": 0.0 }, "geometry": { "type": "MultiPolygon", "coordinates": [ [ [ [ 124.640617370000086, 6.511119842000085 ], [ 124.611076355000023, 6.510439873000053 ], [ 124.608177185000045, 6.512489796000125 ], [ 124.605903625000224, 6.512609959000031 ], [ 124.603637694000213, 6.513899804000062 ], [ 124.603752137000015, 6.515089988000113 ], [ 124.604728698000031, 6.518489837000175 ], [ 124.605003358000204, 6.52018976200003 ], [ 124.605056763000107, 6.521880151000175 ], [ 124.605003358000204, 6.523280144000125 ], [ 124.604431152000075, 6.526309966000156 ], [ 124.608146668000018, 6.532229901000164 ], [ 124.641799927000193, 6.52865982100019 ], [ 124.641563416000054, 6.52511978299998 ], [ 124.640617370000086, 6.511119842000085 ] ] ] ] } },
{ "type": "Feature", "properties": { "COUNTRY": "Philippines", "NAME_1": "South Cotabato", "NAME_2": "Norala", "NAME_3": "Lopez Jaena", "ENGTYPE_3": "Village", "Total_Repo": 0, "Affected_A": 0.0, "Severity": 0.0, "IPI": 0.0 }, "geometry": { "type": "MultiPolygon", "coordinates": [ [ [ [ 124.689918517000024, 6.468160153000156 ], [ 124.690483094000115, 6.481359960000134 ], [ 124.679977417000146, 6.482200146000025 ], [ 124.679862976000095, 6.486149789000081 ], [ 124.680732727000077, 6.49907016700007 ], [ 124.70160675000011, 6.49794006400009 ], [ 124.702026367000144, 6.496590138000158 ], [ 124.702507019000109, 6.495269776000157 ], [ 124.703666687000123, 6.494390010000188 ], [ 124.702659607000101, 6.463769913000021 ], [ 124.689933778000068, 6.463980198000115 ], [ 124.689918517000024, 6.468160153000156 ] ] ] ] } },
{ "type": "Feature", "properties": { "COUNTRY": "Philippines", "NAME_1": "South Cotabato", "NAME_2": "Norala", "NAME_3": "Matapol", "ENGTYPE_3": "Village", "Total_Repo": 9, "Affected_A": 19.81, "Severity": 80.0, "IPI": 0.464 }, "geometry": { "type": "MultiPolygon", "coordinates": [ [ [ [ 124.635063172000287, 6.581550122000181 ], [ 124.653213500000106, 6.567749978 ], [ 124.655166626000096, 6.565820217000123 ], [ 124.65572357200017, 6.563240052000083 ], [ 124.656066894000332, 6.560219765 ], [ 124.652351379000152, 6.557439805000058 ], [ 124.654243468000118, 6.553890228000057 ], [ 124.651947021000069, 6.550030232000097 ], [ 124.65505981400031, 6.546140195000021 ], [ 124.650573731000122, 6.545800209000106 ], [ 124.650718688000097, 6.541699887000163 ], [ 124.616310120000094, 6.54757976500008 ], [ 124.617813111000032, 6.550920009000095 ], [ 124.619361878000063, 6.554249763000087 ], [ 124.621627807000209, 6.560850144000028 ], [ 124.62370300200007, 6.565320014000065 ], [ 124.62615203900009, 6.569749832000127 ], [ 124.627159119000112, 6.571559906000118 ], [ 124.628509522000172, 6.5736799230001 ], [ 124.629501343000129, 6.574870109000187 ], [ 124.631080628000063, 6.57662010100006 ], [ 124.631698609000182, 6.577990055000043 ], [ 124.632873534000169, 6.579060078000055 ], [ 124.634193421000191, 6.581250191000152 ], [ 124.635063172000287, 6.581550122000181 ] ] ] ] } },
{ "type": "Feature", "properties": { "COUNTRY": "Philippines", "NAME_1": "South Cotabato", "NAME_2": "Norala", "NAME_3": "Poblacion", "ENGTYPE_3": "Village", "Total_Repo": 4, "Affected_A": 6.3, "Severity": 52.5, "IPI": 0.188 }, "geometry": { "type": "MultiPolygon", "coordinates": [ [ [ [ 124.677253724000252, 6.512050153000075 ], [ 124.681556703000069, 6.507009984000035 ], [ 124.683616639000093, 6.503409863000172 ], [ 124.7023162830003, 6.50215005900003 ], [ 124.70160675000011, 6.49794006400009 ], [ 124.680732727000077, 6.49907016700007 ], [ 124.679862976000095, 6.486149789000081 ], [ 124.668800355000258, 6.485879899000111 ], [ 124.668502808000085, 6.481750010999974 ], [ 124.664512634000175, 6.481709956000145 ], [ 124.640502929000149, 6.48178005200009 ], [ 124.640983582000217, 6.490759850000188 ], [ 124.640510559000063, 6.506279945000131 ], [ 124.640617370000086, 6.511119842000085 ], [ 124.641563416000054, 6.52511978299998 ], [ 124.6539306640002, 6.525629997000124 ], [ 124.657218933000195, 6.524300099000016 ], [ 124.66493987900003, 6.520609856000135 ], [ 124.666633606000119, 6.52097988100013 ], [ 124.66766357400013, 6.518159867 ], [ 124.669792174, 6.515510082000105 ], [ 124.672752380000134, 6.514090061000104 ], [ 124.675971984000057, 6.514150143999984 ], [ 124.677253724000252, 6.512050153000075 ] ] ] ] } },
{ "type": "Feature", "properties": { "COUNTRY": "Philippines", "NAME_1": "South Cotabato", "NAME_2": "Norala", "NAME_3": "Puti", "ENGTYPE_3": "Village", "Total_Repo": 6, "Affected_A": 7.63, "Severity": 58.33, "IPI": 0.246 }, "geometry": { "type": "MultiPolygon", "coordinates": [ [ [ [ 124.750877381, 6.497089862000109 ], [ 124.745666504000042, 6.496809959000132 ], [ 124.742416382000101, 6.49244022400012 ], [ 124.742141724000248, 6.489570142000161 ], [ 124.739540100000113, 6.485720159000039 ], [ 124.737457275000338, 6.487189770000043 ], [ 124.735107422000169, 6.485229969000159 ], [ 124.733352660000151, 6.487830163000183 ], [ 124.729240417000142, 6.488920212000039 ], [ 124.725303650000114, 6.486499786000138 ], [ 124.717742921000081, 6.489200115000187 ], [ 124.715530395000087, 6.490550041000176 ], [ 124.712860107000211, 6.490389825000022 ], [ 124.709281922000173, 6.49083995899997 ], [ 124.708297729000151, 6.491539954000075 ], [ 124.707023621000076, 6.493549824000127 ], [ 124.705299378000177, 6.493770124000037 ], [ 124.703666687000123, 6.494390010000188 ], [ 124.702507019000109, 6.495269776000157 ], [ 124.702026367000144, 6.496590138000158 ], [ 124.70160675000011, 6.49794006400009 ], [ 124.7023162830003, 6.50215005900003 ], [ 124.70288086000005, 6.50281000200016 ], [ 124.70375824100006, 6.503910064000081 ], [ 124.703956605000144, 6.505119801000035 ], [ 124.703392029000156, 6.506529809000028 ], [ 124.703796387000011, 6.509170055000141 ], [ 124.704109192000033, 6.511360168000067 ], [ 124.701217652000082, 6.514490127000158 ], [ 124.700706483000204, 6.516119956000068 ], [ 124.700202942000146, 6.518109799000172 ], [ 124.705543517000024, 6.517759800000078 ], [ 124.709068299000137, 6.51470995000011 ], [ 124.715423585000167, 6.51531982400013 ], [ 124.717056274000015, 6.515409948000126 ], [ 124.718856811000023, 6.517350196000109 ], [ 124.721199036000144, 6.516349792000085 ], [ 124.723449706000338, 6.51808977100012 ], [ 124.725532531000113, 6.517730236000091 ], [ 124.726303100000223, 6.520760059000054 ], [ 124.72792816100025, 6.522739887000114 ], [ 124.730873109000072, 6.520339966000051 ], [ 124.733627320000096, 6.519460202000062 ], [ 124.736526489000084, 6.516789913000025 ], [ 124.739570619000233, 6.514110089000155 ], [ 124.742561341000055, 6.513869763000173 ], [ 124.744583129000034, 6.51211977100013 ], [ 124.746849060000045, 6.507480144000056 ], [ 124.750556946000188, 6.504740238000181 ], [ 124.750572204000036, 6.502490045000059 ], [ 124.75318145700021, 6.501669884000137 ], [ 124.752281189000087, 6.498680114000024 ], [ 124.750877381, 6.497089862000109 ] ] ] ] } },
{ "type": "Feature", "properties": { "COUNTRY": "Philippines", "NAME_1": "South Cotabato", "NAME_2": "Norala", "NAME_3": "San Jose", "ENGTYPE_3": "Village", "Total_Repo": 0, "Affected_A": 0.0, "Severity": 0.0, "IPI": 0.0 }, "geometry": { "type": "MultiPolygon", "coordinates": [ [ [ [ 124.641563416000054, 6.52511978299998 ], [ 124.641799927000193, 6.52865982100019 ], [ 124.608146668000018, 6.532229901000164 ], [ 124.611076355000023, 6.535950185000104 ], [ 124.613121033000311, 6.538430214000073 ], [ 124.614349366000056, 6.541259766000053 ], [ 124.616310120000094, 6.54757976500008 ], [ 124.650718688000097, 6.541699887000163 ], [ 124.652107238000099, 6.538209916000142 ], [ 124.64964294500021, 6.531799793000062 ], [ 124.6539306640002, 6.525629997000124 ], [ 124.641563416000054, 6.52511978299998 ] ] ] ] } },
{ "type": "Feature", "properties": { "COUNTRY": "Philippines", "NAME_1": "South Cotabato", "NAME_2": "Norala", "NAME_3": "San Miguel", "ENGTYPE_3": "Village", "Total_Repo": 0, "Affected_A": 0.0, "Severity": 0.0, "IPI": 0.0 }, "geometry": { "type": "MultiPolygon", "coordinates": [ [ [ [ 124.739540100000113, 6.485720159000039 ], [ 124.730232239000088, 6.467249870999979 ], [ 124.728019715000187, 6.463779926000029 ], [ 124.702659607000101, 6.463769913000021 ], [ 124.703666687000123, 6.494390010000188 ], [ 124.705299378000177, 6.493770124000037 ], [ 124.707023621000076, 6.493549824000127 ], [ 124.708297729000151, 6.491539954000075 ], [ 124.709281922000173, 6.49083995899997 ], [ 124.712860107000211, 6.490389825000022 ], [ 124.715530395000087, 6.490550041000176 ], [ 124.717742921000081, 6.489200115000187 ], [ 124.725303650000114, 6.486499786000138 ], [ 124.729240417000142, 6.488920212000039 ], [ 124.733352660000151, 6.487830163000183 ], [ 124.735107422000169, 6.485229969000159 ], [ 124.737457275000338, 6.487189770000043 ], [ 124.739540100000113, 6.485720159000039 ] ] ] ] } },
{ "type": "Feature", "properties": { "COUNTRY": "Philippines", "NAME_1": "South Cotabato", "NAME_2": "Norala", "NAME_3": "Simsiman", "ENGTYPE_3": "Village", "Total_Repo": 40, "Affected_A": 61.1, "Severity": 51.625, "IPI": 0.847 }, "geometry": { "type": "MultiPolygon", "coordinates": [ [ [ [ 124.656066894000332, 6.560219765 ], [ 124.657653808000191, 6.557000161000076 ], [ 124.662826538000104, 6.552879811000025 ], [ 124.664321900000346, 6.550280094000129 ], [ 124.66956329300001, 6.548989774000177 ], [ 124.672828674000016, 6.547070026000142 ], [ 124.671943665000072, 6.545829773000094 ], [ 124.674491882000211, 6.540870191000067 ], [ 124.674247743000137, 6.532030106000036 ], [ 124.671562195000206, 6.531509877000076 ], [ 124.673896789000082, 6.525340081000138 ], [ 124.670143128000063, 6.519949913000175 ], [ 124.66766357400013, 6.518159867 ], [ 124.666633606000119, 6.52097988100013 ], [ 124.66493987900003, 6.520609856000135 ], [ 124.657218933000195, 6.524300099000016 ], [ 124.6539306640002, 6.525629997000124 ], [ 124.64964294500021, 6.531799793000062 ], [ 124.652107238000099, 6.538209916000142 ], [ 124.650718688000097, 6.541699887000163 ], [ 124.650573731000122, 6.545800209000106 ], [ 124.65505981400031, 6.546140195000021 ], [ 124.651947021000069, 6.550030232000097 ], [ 124.654243468000118, 6.553890228000057 ], [ 124.652351379000152, 6.557439805000058 ], [ 124.656066894000332, 6.560219765 ] ] ] ] } },
{ "type": "Feature", "properties": { "COUNTRY": "Philippines", "NAME_1": "South Cotabato", "NAME_2": "Norala", "NAME_3": "Tinago", "ENGTYPE_3": "Village", "Total_Repo": 0, "Affected_A": 0.0, "Severity": 0.0, "IPI": 0.0 }, "geometry": { "type": "MultiPolygon", "coordinates": [ [ [ [ 124.700202942000146, 6.518109799000172 ], [ 124.697937013000342, 6.521220208000045 ], [ 124.695457459000181, 6.522039891000077 ], [ 124.694869994000328, 6.524660111000173 ], [ 124.695793152000192, 6.524950027000159 ], [ 124.697158814000204, 6.528470040000173 ], [ 124.698646546000191, 6.528610229000151 ], [ 124.700729371000079, 6.530590056999984 ], [ 124.699996949000251, 6.532899857000132 ], [ 124.698463440000069, 6.535130024000011 ], [ 124.690170289000093, 6.546070099000076 ], [ 124.690406800000346, 6.549530028999982 ], [ 124.688682557000106, 6.551899910000088 ], [ 124.687446594000221, 6.556960107000123 ], [ 124.688171388000114, 6.566549779000127 ], [ 124.694450379000159, 6.570899963000159 ], [ 124.6968994140002, 6.571330071000034 ], [ 124.706840515000181, 6.572579862000168 ], [ 124.708549500000117, 6.574969769000063 ], [ 124.71087646400008, 6.576039791000142 ], [ 124.715347289000078, 6.571979999000177 ], [ 124.718193055000029, 6.560369969000021 ], [ 124.717117309000173, 6.558869839000067 ], [ 124.719886779000149, 6.550580026000091 ], [ 124.722282409000172, 6.547420025 ], [ 124.721786498000029, 6.543079854000041 ], [ 124.722648621000076, 6.542379857000071 ], [ 124.725692749000018, 6.542900086000088 ], [ 124.727241516000049, 6.540790082000115 ], [ 124.727371215000176, 6.537549973000125 ], [ 124.729316711000024, 6.53805017600007 ], [ 124.729843140000185, 6.536059856000065 ], [ 124.731483460000163, 6.533999919000053 ], [ 124.731491088000098, 6.531839848000118 ], [ 124.732910157000219, 6.529870033000122 ], [ 124.736076355000137, 6.527510167000059 ], [ 124.736183167000263, 6.524899960000027 ], [ 124.736297608000086, 6.524779797000122 ], [ 124.738273621000076, 6.52277994100001 ], [ 124.738777161000144, 6.520890237000174 ], [ 124.73925018400007, 6.519169807000083 ], [ 124.740303040000185, 6.514560223000103 ], [ 124.742561341000055, 6.513869763000173 ], [ 124.739570619000233, 6.514110089000155 ], [ 124.736526489000084, 6.516789913000025 ], [ 124.733627320000096, 6.519460202000062 ], [ 124.730873109000072, 6.520339966000051 ], [ 124.72792816100025, 6.522739887000114 ], [ 124.726303100000223, 6.520760059000054 ], [ 124.725532531000113, 6.517730236000091 ], [ 124.723449706000338, 6.51808977100012 ], [ 124.721199036000144, 6.516349792000085 ], [ 124.718856811000023, 6.517350196000109 ], [ 124.717056274000015, 6.515409948000126 ], [ 124.715423585000167, 6.51531982400013 ], [ 124.709068299000137, 6.51470995000011 ], [ 124.705543517000024, 6.517759800000078 ], [ 124.700202942000146, 6.518109799000172 ] ] ] ] } },
{ "type": "Feature", "properties": { "COUNTRY": "Philippines", "NAME_1": "South Cotabato", "NAME_2": "Norala", "NAME_3": "BS Aquino", "ENGTYPE_3": "Village", "Total_Repo": 8, "Affected_A": 14.3, "Severity": 30.125, "IPI": 0.152 }, "geometry": { "type": "MultiPolygon", "coordinates": [ [ [ [ 124.68756590762068, 6.516850486138148 ], [ 124.693260194000231, 6.518139838000081 ], [ 124.694597134058355, 6.520512850397134 ], [ 124.695530200868092, 6.521885007470281 ], [ 124.696812846758945, 6.521591831266657 ], [ 124.697937013000342, 6.521220208000045 ], [ 124.700202942000146, 6.518109799000172 ], [ 124.700706483000204, 6.516119956000068 ], [ 124.701217652000082, 6.514490127000158 ], [ 124.701254205372535, 6.514450559656431 ], [ 124.701428032429988, 6.513701766178156 ], [ 124.703412899749082, 6.512113872322876 ], [ 124.704109192000033, 6.511360168000067 ], [ 124.703796387000011, 6.509170055000141 ], [ 124.703392029000156, 6.506529809000028 ], [ 124.703661945065662, 6.505855703455865 ], [ 124.703401899258907, 6.503463282033728 ], [ 124.70288086000005, 6.50281000200016 ], [ 124.702424543085655, 6.502276605929061 ], [ 124.693091292926084, 6.502771551013281 ], [ 124.692547127964545, 6.502808211668173 ], [ 124.683513369060734, 6.503675452522938 ], [ 124.683270275065865, 6.504015198347086 ], [ 124.681556703000069, 6.507009984000035 ], [ 124.678905378770565, 6.510115535338106 ], [ 124.677452800573008, 6.512145644626276 ], [ 124.68693765088436, 6.516695269767998 ], [ 124.68756590762068, 6.516850486138148 ] ] ] ] } }
]
}
